{
    "links": {
        "self": "http://www.neowsapp.com/rest/v1/neo/3398093?api_key=iIulBulltgU6a56xZRHN4H3l9WmuAYTsLGpBGhQ2"
    },
    "id": "3398093",
    "neo_reference_id": "3398093",
    "name": "(2007 YM)",
    "designation": "2007 YM",
    "nasa_jpl_url": "http://ssd.jpl.nasa.gov/sbdb.cgi?sstr=3398093",
    "absolute_magnitude_h": 26.2,
    "estimated_diameter": {
        "kilometers": {
            "estimated_diameter_min": 0.0152951935,
            "estimated_diameter_max": 0.0342010925
        },
        "meters": {
            "estimated_diameter_min": 15.2951935344,
            "estimated_diameter_max": 34.201092472
        },
        "miles": {
            "estimated_diameter_min": 0.0095039897,
            "estimated_diameter_max": 0.021251567
        },
        "feet": {
            "estimated_diameter_min": 50.1810827555,
            "estimated_diameter_max": 112.2083122258
        }
    },
    "is_potentially_hazardous_asteroid": false,
    "close_approach_data": [
        {
            "close_approach_date": "2007-12-14",
            "close_approach_date_full": "2007-Dec-14 07:30",
            "epoch_date_close_approach": 1197617400000,
            "relative_velocity": {
                "kilometers_per_second": "8.1744414898",
                "kilometers_per_hour": "29427.9893633416",
                "miles_per_hour": "18285.4081685719"
            },
            "miss_distance": {
                "astronomical": "0.0140293572",
                "lunar": "5.4574199508",
                "kilometers": "2098761.954589164",
                "miles": "1304110.2061879032"
            },
            "orbiting_body": "Earth"
        }
    ],
    "orbital_data": {
        "orbit_id": "6",
        "orbit_determination_date": "2017-04-06 09:04:53",
        "first_observation_date": "2007-12-17",
        "last_observation_date": "2007-12-17",
        "data_arc_in_days": null,
        "observations_used": 12,
        "orbit_uncertainty": "9",
        "minimum_orbit_intersection": ".00428234",
        "jupiter_tisserand_invariant": "3.123",
        "epoch_osculation": "2454451.5",
        "eccentricity": ".6170330114999938",
        "semi_major_axis": "2.583256561149535",
        "inclination": ".9907069980804374",
        "ascending_node_longitude": "59.65036366697262",
        "orbital_period": "1516.525574317369",
        "perihelion_distance": ".9893019857463197",
        "perihelion_argument": "11.27389881363414",
        "aphelion_distance": "4.177211136552751",
        "perihelion_time": "2454440.461827054241",
        "mean_anomaly": "2.62029360254075",
        "mean_motion": ".2373847207700708",
        "equinox": "J2000",
        "orbit_class": {
            "orbit_class_type": "APO",
            "orbit_class_description": "Near-Earth asteroid orbits which cross the Earth’s orbit similar to that of 1862 Apollo",
            "orbit_class_range": "a (semi-major axis) > 1.0 AU; q (perihelion) < 1.017 AU"
        }
    },
    "is_sentry_object": false
}